[{"OBJECT_ID":"2009-044B","OBJECT_NAME":"OPTUS D3","NORAD_CAT_ID":"35756","OBJECT_TYPE":"PAYLOAD","PERIOD":"1436.176","INCLINATION":"0.0399","APOGEE":"35798.971","PERIGEE":"35777.356","ECCENTRICITY":"0.0002563","MEAN_MOTION":"1.00266195","TLE_LINE1":"1 35756U 09044B   16238.69646267  .00000000  00000-0  10000-3 0  9993","TLE_LINE2":"2 35756   0.0399 353.0742 0002563 163.0726 224.9107  1.00266195 25714","LAUNCH_DATE":"2009-08-21","LAUNCH_SITE":"FRENCH GUIANA","OWNER":"AUSTRALIA","ORBIT_TYPE":"Geosynchronous","OPERATIONAL_STATUS":"Operational","satInfo":{"lng":-143.72831917658036,"lat":0.04544235638982303,"elevation":-8.522007990573082,"azimuth":98.72831917658034,"range":42673.022794896984,"height":35823.74685226839,"velocity":3.0729701521588226},"x":-159,"y":227,"dx":-2.477492435792497,"dy":-1.8180145177225557},{"OBJECT_ID":"2009-044C","OBJECT_NAME":"ARIANE 5 R/B","NORAD_CAT_ID":"35757","OBJECT_TYPE":"ROCKET BODY","PERIOD":"599.077","INCLINATION":"1.73","APOGEE":"34072.678","PERIGEE":"252.059","ECCENTRICITY":"0.7183495","MEAN_MOTION":"2.40369373","TLE_LINE1":"1 35757U 09044C   16238.07918988 +.00001576 +00000-0 +51747-3 0  9990","TLE_LINE2":"2 35757 001.7300 121.3059 7183495 197.5431 111.8167 02.40369373059947","LAUNCH_DATE":"2009-08-21","LAUNCH_SITE":"FRENCH GUIANA","OWNER":"FRANCE","ORBIT_TYPE":"Highly Elliptical Orbit","OPERATIONAL_STATUS":"N/A, derelict rocket body","satInfo":{"lng":171.98958065446564,"lat":-2.0405756817672875,"elevation":-12.334582062175052,"azimuth":143.01041934553433,"range":35543.35092868169,"height":28366.766310717077,"velocity":2.4091225016955984},"x":29,"y":221,"dx":-2.3856160754506357,"dy":0.335718883483732},{"OBJECT_ID":"2009-058A","OBJECT_NAME":"NSS 12","NORAD_CAT_ID":"36032","OBJECT_TYPE":"PAYLOAD","PERIOD":"1436.102","INCLINATION":"0.0313","APOGEE":"35798.099","PERIGEE":"35775.313","ECCENTRICITY":"0.0002702","MEAN_MOTION":"1.00271395","TLE_LINE1":"1 36032U 09058A   16238.91228599  .00000044  00000-0  00000+0 0  9998","TLE_LINE2":"2 36032   0.0313 284.2319 0002702 228.4931 207.2825  1.00271395 25025","LAUNCH_DATE":"2009-10-29","LAUNCH_SITE":"FRENCH GUIANA","OWNER":"SOCIÉTÉ EUROPÉENNE DES SATELLITES","ORBIT_TYPE":"Geosynchronous","OPERATIONAL_STATUS":"Operational","satInfo":{"lng":93.16625817307374,"lat":-1.612253970886488,"elevation":-10.14715571252419,"azimuth":221.83374182692626,"range":42809.28453734366,"height":35778.218732942325,"velocity":3.0752622899814344},"x":267,"y":16,"dx":-0.1698575231124421,"dy":3.0705677934258286},{"OBJECT_ID":"2009-064A","OBJECT_NAME":"INTELSAT 14","NORAD_CAT_ID":"36097","OBJECT_TYPE":"PAYLOAD","PERIOD":"1436.079","INCLINATION":"0.0145","APOGEE":"35795.616","PERIGEE":"35776.887","ECCENTRICITY":"0.0002221","MEAN_MOTION":"1.00273015","TLE_LINE1":"1 36097U 09064A   16237.20026821 -.00000297 +00000-0 +00000-0 0  9993","TLE_LINE2":"2 36097 000.0145 113.7955 0002221 052.1829 194.0243 01.00273015024796","LAUNCH_DATE":"2009-11-23","LAUNCH_SITE":"AIR FORCE EASTERN TEST RANGE","OWNER":"INTERNATIONAL TELECOMMUNICATIONS SATELLITE ORGANIZATION (INTELSAT)","ORBIT_TYPE":"Geosynchronous","OPERATIONAL_STATUS":"Operational","satInfo":{"lng":-45.08111567858366,"lat":-0.5113701717635937,"elevation":-9.07264368364318,"azimuth":0.0811156785836328,"range":42699.106445736325,"height":35788.44753272787,"velocity":3.07454579204763},"x":-190,"y":-199,"dx":2.170952146044586,"dy":-2.1771078537780792},{"OBJECT_ID":"2010-032C","OBJECT_NAME":"ARIANE 5 R/B","NORAD_CAT_ID":"36746","OBJECT_TYPE":"ROCKET BODY","PERIOD":"597.726","INCLINATION":"1.3075","APOGEE":"34008.574","PERIGEE":"245.338","ECCENTRICITY":"0.7182111","MEAN_MOTION":"2.40912781","TLE_LINE1":"1 36746U 10032C   16238.59796432  .00002826  00000-0  75380-3 0  9991","TLE_LINE2":"2 36746   1.3075 205.0308 7182111 281.4705  11.7377  2.40912781 52793","LAUNCH_DATE":"2010-06-26","LAUNCH_SITE":"FRENCH GUIANA","OWNER":"FRANCE","ORBIT_TYPE":"Highly Elliptical Orbit","OPERATIONAL_STATUS":"N/A, derelict rocket body","satInfo":{"lng":-39.517534249586504,"lat":1.1906265747662046,"elevation":-8.066975573861042,"azimuth":354.5175342495865,"range":39513.257075646696,"height":32752.564054976945,"velocity":1.7505289342233878},"x":-156,"y":-199,"dx":1.3504103396575984,"dy":-1.1138866477784533},{"OBJECT_ID":"2010-032D","OBJECT_NAME":"ARIANE 5 DEB (SYLDA)","NORAD_CAT_ID":"36747","OBJECT_TYPE":"DEBRIS","PERIOD":"437.319","INCLINATION":"1.9652","APOGEE":"25139.469","PERIGEE":"274.306","ECCENTRICITY":"0.6514313","MEAN_MOTION":"3.29278761","TLE_LINE1":"1 36747U 10032D   16238.73243782  .00013347  00000-0  33319-2 0  9998","TLE_LINE2":"2 36747   1.9652 354.3012 6514313 336.3550   3.8969  3.29278761 61768","LAUNCH_DATE":"2010-06-26","LAUNCH_SITE":"FRENCH GUIANA","OWNER":"FRANCE","ORBIT_TYPE":"Highly Elliptical Orbit","OPERATIONAL_STATUS":"N/A, space debris","satInfo":{"lng":31.810669047128165,"lat":-0.8505012680838346,"elevation":-15.923548354866936,"azimuth":283.18933095287184,"range":24440.61055985424,"height":17127.23880411455,"velocity":3.4128577353474854},"x":67,"y":-115,"dx":2.9002279164398037,"dy":1.7989652454742984},{"OBJECT_ID":"2010-037B","OBJECT_NAME":"RASCOM QAF 1R","NORAD_CAT_ID":"36831","OBJECT_TYPE":"PAYLOAD","PERIOD":"1436.099","INCLINATION":"0.0098","APOGEE":"35805.731","PERIGEE":"35767.555","ECCENTRICITY":"0.0004527","MEAN_MOTION":"1.00271618","TLE_LINE1":"1 36831U 10037B   16239.06218256 -.00000010  00000-0  00000+0 0  9994","TLE_LINE2":"2 36831   0.0098 112.0285 0004527  56.6819 191.2929  1.00271618 22375","LAUNCH_DATE":"2010-08-04","LAUNCH_SITE":"FRENCH GUIANA","OWNER":"REGIONAL AFRICAN SATELLITE COMMUNICATIONS ORG","ORBIT_TYPE":"Geosynchronous","OPERATIONAL_STATUS":"Operational","satInfo":{"lng":10.661346134016084,"lat":1.5416629119184524,"elevation":-7.065612728342786,"azimuth":304.33865386598393,"range":42469.13916433746,"height":35783.735078831334,"velocity":3.075239708057394},"x":49,"y":-277,"dx":3.02215439906928,"dy":0.5689306198466784},{"OBJECT_ID":"2010-042A","OBJECT_NAME":"CHINASAT 6A","NORAD_CAT_ID":"37150","OBJECT_TYPE":"PAYLOAD","PERIOD":"1436.110","INCLINATION":"0.031","APOGEE":"35794.354","PERIGEE":"35779.377","ECCENTRICITY":"0.0001776","MEAN_MOTION":"1.00270827","TLE_LINE1":"1 37150U 10042A   16238.90935572 -.00000382 +00000-0 +00000-0 0  9997","TLE_LINE2":"2 37150 000.0310 254.7198 0001776 218.3258 313.9774 01.00270827021989","LAUNCH_DATE":"2010-09-04","LAUNCH_SITE":"Xichang Space Center, China","OWNER":"PEOPLES REPUBLIC OF CHINA","ORBIT_TYPE":"Geosynchronous","OPERATIONAL_STATUS":"Operational","satInfo":{"lng":94.89137641718003,"lat":-0.5334129180534617,"elevation":-9.08945622413403,"azimuth":220.10862358281997,"range":42724.753137145155,"height":35811.9434178753,"velocity":3.073758105031993},"x":266,"y":24,"dx":-0.26209001654123454,"dy":3.062563911411366},{"OBJECT_ID":"2010-064A","OBJECT_NAME":"CHINASAT 20A","NORAD_CAT_ID":"37234","OBJECT_TYPE":"PAYLOAD","PERIOD":"1436.093","INCLINATION":"0.0732","APOGEE":"35796.601","PERIGEE":"35776.471","ECCENTRICITY":"0.0002387","MEAN_MOTION":"1.00272001","TLE_LINE1":"1 37234U 10064A   16238.76854906 -.00000364  00000-0  00000+0 0  9998","TLE_LINE2":"2 37234   0.0732 264.3054 0002387 337.6681 139.1717  1.00272001 21118","LAUNCH_DATE":"2010-11-24","LAUNCH_SITE":"Xichang Space Center, China","OWNER":"PEOPLES REPUBLIC OF CHINA","ORBIT_TYPE":"Geosynchronous","OPERATIONAL_STATUS":"Operational","satInfo":{"lng":119.81937998159503,"lat":0.042083859965436295,"elevation":-8.531853452220844,"azimuth":195.18062001840497,"range":42640.96296681425,"height":35790.952658664246,"velocity":3.0749097169177366},"x":232,"y":140,"dx":-1.5290525122946323,"dy":2.6677833836053084},{"OBJECT_ID":"2011-001A","OBJECT_NAME":"ELEKTRO-L","NORAD_CAT_ID":"37344","OBJECT_TYPE":"PAYLOAD","PERIOD":"1444.098","INCLINATION":"1.8341","APOGEE":"36088.588","PERIGEE":"35797.562","ECCENTRICITY":"0.0034383","MEAN_MOTION":"0.99716182","TLE_LINE1":"1 37344U 11001A   16237.22270159 -.00000182  00000-0  00000+0 0  9992","TLE_LINE2":"2 37344   1.8341  79.1330 0034383  81.5917 243.9683  0.99716182 20522","LAUNCH_DATE":"2011-01-20","LAUNCH_SITE":"TYURATAM MISSILE AND SPACE COMPLEX","OWNER":"COMMONWEALTH OF INDEPENDENT STATES","ORBIT_TYPE":"Geosynchronous","OPERATIONAL_STATUS":"Operational","satInfo":{"lng":-177.56213458258696,"lat":-3.837858796163718,"elevation":-12.256860310341361,"azimuth":132.56213458258696,"range":43302.827486513575,"height":36032.64507573453,"velocity":3.0625079025018263},"x":-12,"y":283,"dx":-3.0597361408019514,"dy":-0.13026665558199058},{"OBJECT_ID":"2011-021A","OBJECT_NAME":"TELSTAR 14R","NORAD_CAT_ID":"37602","OBJECT_TYPE":"PAYLOAD","PERIOD":"1436.115","INCLINATION":"0.053","APOGEE":"35791.843","PERIGEE":"35782.078","ECCENTRICITY":"0.0001158","MEAN_MOTION":"1.00270487","TLE_LINE1":"1 37602U 11021A   16239.09239381 -.00000308  00000-0  00000+0 0  9990","TLE_LINE2":"2 37602   0.0530 296.1348 0001158 342.6781  26.1940  1.00270487 19862","LAUNCH_DATE":"2011-05-20","LAUNCH_SITE":"TYURATAM MISSILE AND SPACE COMPLEX","OWNER":"CANADA","ORBIT_TYPE":"Geosynchronous","OPERATIONAL_STATUS":"Operational","satInfo":{"lng":-75.41792672753756,"lat":1.5117020537009553,"elevation":-7.091348407666681,"azimuth":30.417926727537566,"range":42490.28276650547,"height":35801.785724755784,"velocity":3.074070415386595},"x":-259,"y":-71,"dx":0.7739481602969438,"dy":-2.97504843051808}]